IRIDIUM 130             
1 43073U 17083D   24124.89225446  .00000077  00000+0  20336-4 0  9990
2 43073  86.3926 285.7901 0002116  88.9521 271.1918 14.34216449333138
IRIDIUM 151             
1 43074U 17083E   24124.93664653  .00000325  00000+0  10904-3 0  9998
2 43074  86.3921 285.6114 0002487  98.8916 261.2562 14.34222137333167
IRIDIUM 134             
1 43075U 17083F   24124.90494098  .00000179  00000+0  56727-4 0  9991
2 43075  86.3923 285.6224 0002037  88.5478 271.5951 14.34217395333124
IRIDIUM 137             
1 43076U 17083G   24124.91762673  .00000155  00000+0  48165-4 0  9991
2 43076  86.3925 285.6944 0002145 103.9606 256.1829 14.34218329333199
IRIDIUM 141             
1 43077U 17083H   24124.84151648  .00000138  00000+0  42116-4 0  9999
2 43077  86.3919 285.6006 0002260  92.2642 267.8813 14.34218715333180
IRIDIUM 153             
1 43078U 17083J   24124.86347282  .00000380  00000+0  12875-3 0  9990
2 43078  86.3964 254.0303 0002627  90.0820 270.0677 14.34217293334299
